IRIDIUM 63              
1 25286U 98021B   25295.50561454  .00000749  00000+0  24778-3 0  9996
2 25286  86.4027  28.6985 0001972  98.4298 261.7123 14.36671515442123
IRIDIUM 69              
1 25319U 98026A   25295.54349331  .00001062  00000+0  32356-3 0  9990
2 25319  86.4002  41.5674 0001896  20.6071 339.5205 14.41125285441402
IRIDIUM 71              
1 25320U 98026B   25295.53456525  .00000552  00000+0  16478-3 0  9995
2 25320  86.4009  36.2482 0003557  60.0371 300.1182 14.41268902441936
IRIDIUM 73              
1 25344U 98032C   25295.57301352  .00000927  00000+0  22509-3 0  9997
2 25344  86.4452 352.7300 0001581  88.3211 271.8176 14.51893111449044
IRIDIUM 82              
1 25467U 98051A   25295.57166476  .00063846  00000+0  14114-2 0  9991
2 25467  86.3653  46.7394 0070961 170.4682 189.7939 15.40894657443502
